[{"OBJECT_NAME":"KUIPER-00120","OBJECT_ID":"2025-217A","EPOCH":"2026-03-09T09:39:14.260896","MEAN_MOTION":14.79937882,"ECCENTRICITY":7.237e-5,"INCLINATION":51.8993,"RA_OF_ASC_NODE":54.339,"ARG_OF_PERICENTER":91.7416,"MEAN_ANOMALY":268.363,"EPHEMERIS_TYPE":0,"CLASSIFICATION_TYPE":"U","NORAD_CAT_ID":65762,"ELEMENT_SET_NO":999,"REV_AT_EPOCH":2469,"BSTAR":0.00067951677,"MEAN_MOTION_DOT":4.963e-5,"MEAN_MOTION_DDOT":0},{"OBJECT_NAME":"COSMOS 374 DEB","OBJECT_ID":"1970-089C","EPOCH":"2026-03-09T09:17:34.304640","MEAN_MOTION":12.7338835,"ECCENTRICITY":0.09844504,"INCLINATION":62.7923,"RA_OF_ASC_NODE":90.653,"ARG_OF_PERICENTER":76.4392,"MEAN_ANOMALY":294.4191,"EPHEMERIS_TYPE":0,"CLASSIFICATION_TYPE":"U","NORAD_CAT_ID":4616,"ELEMENT_SET_NO":999,"REV_AT_EPOCH":53136,"BSTAR":0.00038960212,"MEAN_MOTION_DOT":5.57e-6,"MEAN_MOTION_DDOT":0}]
